{"type":"FeatureCollection","features":[{"type":"Feature","id":"IN-CG","properties":{"shapeName":"Chhattīsgarh","shapeISO":"IN-CT","shapeID":"1811400B70654311394581","shapeGroup":"IND","shapeType":"ADM1"},"geometry":{"type":"Polygon","coordinates":[[[80.27289101775115,18.72299154160009],[80.63764109530408,18.522554481043922],[80.94925711827366,18.08624055010885],[81.0082439412748,17.7982752842528],[81.08558432199924,17.798071960732894],[81.39607140430347,17.819951703982543],[81.53734294792925,18.269353450302724],[81.96082790248715,18.596648923910898],[82.24603383070111,18.91913875485334],[82.10023979693088,19.516612249820657],[82.02904306629979,19.507686229696624],[82.06020917993611,19.79639529567553],[81.85179792657271,19.92316736333813],[81.94637148080817,20.105152059670246],[82.41800536743362,19.904095124089128],[82.70390398386824,19.83203750345378],[82.7180892535703,19.988764851502246],[82.40096000110579,20.05455197598036],[82.4380102514313,20.434212532355748],[82.33331185479884,20.568736691130646],[82.33952918650837,20.846865367442785],[82.48203732130987,20.85005717608577],[82.64047106165772,21.154754071474265],[83.19821405129557,21.14534786279452],[83.493323404257,21.81815724183876],[83.6273875415761,22.203726541375374],[84.00592864160909,22.373632517123248],[84.00912746777568,22.526052383891994],[84.2380787441279,22.691900681854456],[84.39636994160314,22.927346099864188],[84.14946053423759,22.965434004204027],[83.96925751985934,23.36687292687869],[84.02847980387287,23.602377301506323],[83.77245393637294,23.610950244735537],[83.70761114156167,23.817465046377595],[83.51569460522329,24.027215443705277],[83.3298774625774,24.101694597944302],[83.14149377567263,23.884935825545384],[82.8103128213107,23.962879981157148],[82.55145540384808,23.790680790727176],[82.00751638680346,23.861789002426143],[81.82280152102867,23.80775385351952],[81.60900453426198,23.90323451405569],[81.69589561444096,23.721350852904063],[81.62703965179347,23.482056981297568],[81.74662308058154,23.56982844595228],[82.19937103820196,23.31346555426492],[82.16134284323059,23.143151093933003],[81.92148644153731,23.04084784682909],[81.77566876321052,22.874469197293408],[81.77161322902882,22.676435759287205],[81.39640036556389,22.440110217190835],[81.32651577352559,22.52617216239635],[81.11115484590043,22.437600196671028],[80.99438281337166,22.049266989069952],[80.90792665163916,22.10959700341091],[80.81973273402386,21.74804707665939],[80.7159707205823,21.67475112674038],[80.66004059410011,21.334107258188677],[80.4642767898938,21.174935917800774],[80.42582060338512,21.005867889288467],[80.54204569216158,20.93011539836504],[80.631866728251,20.598279129036253],[80.62609579455896,20.336139535180607],[80.395273555642,20.244873228846895],[80.55207092756326,20.117988065707618],[80.48058100119648,19.827532760415092],[80.67030831623802,19.60918109579236],[80.89543000177052,19.519730621702255],[80.85298729954174,19.363858610091484],[80.62342406746176,19.305565487211172],[80.56260477740075,19.398951144197444],[80.39872266412485,19.247232087485184],[80.26901691001918,18.94718266780545],[80.27289101775115,18.72299154160009]]]}},{"type":"Feature","id":"IN-WB","properties":{"shapeName":"West Bengal","shapeISO":"IN-WB","shapeID":"1811400B32673734874058","shapeGroup":"IND","shapeType":"ADM1"},"geometry":{"type":"MultiPolygon","coordinates":[[[[88.21500569955332,21.493025923599138],[88.21500569955332,21.493025923599138],[88.21500569955332,21.493025923599138],[88.21500569955332,21.493025923599138]]],[[[88.33382004738895,21.55585038821341],[88.33382004738895,21.55585038821341],[88.33382004738895,21.55585038821341],[88.33382004738895,21.55585038821341]]],[[[88.17735491378225,21.549383285618095],[88.17735491378225,21.549383285618095],[88.17735491378225,21.549383285618095],[88.17735491378225,21.549383285618095]]],[[[88.35153513560888,21.573205406337394],[88.35153513560888,21.573205406337394],[88.35153513560888,21.573205406337394],[88.35153513560888,21.573205406337394]]],[[[88.04956766827269,21.516237518662965],[88.04956766827269,21.516237518662965],[88.04956766827269,21.516237518662965],[88.04956766827269,21.516237518662965]]],[[[88.07091166098293,21.529986490646834],[88.07091166098293,21.529986490646834],[88.07091166098293,21.529986490646834],[88.07091166098293,21.529986490646834]]],[[[88.04785607672082,21.575652764623058],[88.04785607672082,21.575652764623058],[88.04785607672082,21.575652764623058],[88.04785607672082,21.575652764623058]]],[[[88.07590142958539,21.58822065496678],[88.07590142958539,21.58822065496678],[88.07590142958539,21.58822065496678],[88.07590142958539,21.58822065496678]]],[[[88.08621871267584,21.590898953258947],[88.08621871267584,21.590898953258947],[88.08621871267584,21.590898953258947],[88.08621871267584,21.590898953258947]]],[[[88.07559960373476,21.62095173851336],[88.07559960373476,21.62095173851336],[88.07559960373476,21.62095173851336],[88.07559960373476,21.62095173851336]]],[[[87.96762471618948,21.63317232875778],[87.96762471618948,21.63317232875778],[87.96762471618948,21.63317232875778],[87.96762471618948,21.63317232875778]]],[[[87.90361239140051,21.694545738553312],[87.90361239140051,21.694545738553312],[87.90361239140051,21.694545738553312],[87.90361239140051,21.694545738553312]]],[[[88.3521690533487,21.62023435762891],[88.3521690533487,21.62023435762891],[88.3521690533487,21.62023435762891],[88.3521690533487,21.62023435762891]]],[[[88.22749654001701,21.650056256512034],[88.22749654001701,21.650056256512034],[88.22749654001701,21.650056256512034],[88.22749654001701,21.650056256512034]]],[[[88.30989392105639,21.64283136981083],[88.30989392105639,21.64283136981083],[88.30989392105639,21.64283136981083],[88.30989392105639,21.64283136981083]]],[[[88.42055079805263,21.70280964847346],[88.42055079805263,21.70280964847346],[88.42055079805263,21.70280964847346],[88.42055079805263,21.70280964847346]]],[[[88.59349562346289,21.566191375929282],[88.59349562346289,21.566191375929282],[88.59349562346289,21.566191375929282],[88.59349562346289,21.566191375929282]]],[[[88.53434424976297,21.573128412039964],[88.53434424976297,21.573128412039964],[88.53434424976297,21.573128412039964],[88.53434424976297,21.573128412039964]]],[[[88.6019064677214,21.58328092576097],[88.6019064677214,21.58328092576097],[88.6019064677214,21.58328092576097],[88.6019064677214,21.58328092576097]]],[[[88.56595283308405,21.56311150496171],[88.56595283308405,21.56311150496171],[88.56595283308405,21.56311150496171],[88.56595283308405,21.56311150496171]]],[[[88.85360392789066,21.601229206762586],[88.85360392789066,21.601229206762586],[88.85360392789066,21.601229206762586],[88.85360392789066,21.601229206762586]]],[[[88.78358323210365,21.611135680740848],[88.78358323210365,21.611135680740848],[88.78358323210365,21.611135680740848],[88.78358323210365,21.611135680740848]]],[[[88.98324212868695,21.6430102785931],[88.98324212868695,21.6430102785931],[88.98324212868695,21.6430102785931],[88.98324212868695,21.6430102785931]]],[[[88.97343789770977,21.733813556660387],[88.97343789770977,21.733813556660387],[88.97343789770977,21.733813556660387],[88.97343789770977,21.733813556660387]]],[[[88.57232272208503,21.631736183330908],[88.57232272208503,21.631736183330908],[88.57232272208503,21.631736183330908],[88.57232272208503,21.631736183330908]]],[[[88.63000409445068,21.664558925326975],[88.63000409445068,21.664558925326975],[88.63000409445068,21.664558925326975],[88.63000409445068,21.664558925326975]]],[[[88.56292844088101,21.700820861691227],[88.56292844088101,21.700820861691227],[88.56292844088101,21.700820861691227],[88.56292844088101,21.700820861691227]]],[[[88.73096216225993,21.647587298331363],[88.73096216225993,21.647587298331363],[88.73096216225993,21.647587298331363],[88.73096216225993,21.647587298331363]]],[[[88.46156960587741,21.782445979783756],[88.46156960587741,21.782445979783756],[88.46156960587741,21.782445979783756],[88.46156960587741,21.782445979783756]]],[[[88.57187666542731,21.753638850848507],[88.57187666542731,21.753638850848507],[88.57187666542731,21.753638850848507],[88.57187666542731,21.753638850848507]]],[[[88.62919781336404,21.738938621788677],[88.62919781336404,21.738938621788677],[88.62919781336404,21.738938621788677],[88.62919781336404,21.738938621788677]]],[[[88.58221798384155,21.746452379123262],[88.58221798384155,21.746452379123262],[88.58221798384155,21.746452379123262],[88.58221798384155,21.746452379123262]]],[[[87.97535899788504,21.701113385918045],[87.97535899788504,21.701113385918045],[87.97535899788504,21.701113385918045],[87.97535899788504,21.701113385918045]]],[[[88.14410982818559,21.653757166609868],[88.14410982818559,21.653757166609868],[88.14410982818559,21.653757166609868],[88.14410982818559,21.653757166609868]]],[[[87.92323880169428,21.709711380926983],[87.92323880169428,21.709711380926983],[87.92323880169428,21.709711380926983],[87.92323880169428,21.709711380926983]]],[[[87.95630502283643,21.70501814047948],[87.95630502283643,21.70501814047948],[87.95630502283643,21.70501814047948],[87.95630502283643,21.70501814047948]]],[[[88.18790760308787,21.711327267303297],[88.18790760308787,21.711327267303297],[88.18790760308787,21.711327267303297],[88.18790760308787,21.711327267303297]]],[[[88.39348958820939,21.714168272166262],[88.39348958820939,21.714168272166262],[88.39348958820939,21.714168272166262],[88.39348958820939,21.714168272166262]]],[[[88.20045289493252,21.754948386587458],[88.20045289493252,21.754948386587458],[88.20045289493252,21.754948386587458],[88.20045289493252,21.754948386587458]]],[[[88.28783299729092,21.7298904757351],[88.28783299729092,21.7298904757351],[88.28783299729092,21.7298904757351],[88.28783299729092,21.7298904757351]]],[[[87.98890336364933,21.72906761375853],[87.98890336364933,21.72906761375853],[87.98890336364933,21.72906761375853],[87.98890336364933,21.72906761375853]]],[[[87.95806237546716,21.740340041898495],[87.95806237546716,21.740340041898495],[87.95806237546716,21.740340041898495],[87.95806237546716,21.740340041898495]]],[[[87.9389959964811,21.757425024622915],[87.9389959964811,21.757425024622915],[87.9389959964811,21.757425024622915],[87.9389959964811,21.757425024622915]]],[[[87.8957790174443,21.770921737836826],[87.8957790174443,21.770921737836826],[87.8957790174443,21.770921737836826],[87.8957790174443,21.770921737836826]]],[[[88.36297332303616,21.737967079721454],[88.36297332303616,21.737967079721454],[88.36297332303616,21.737967079721454],[88.36297332303616,21.737967079721454]]],[[[88.37138039706542,21.785510743336722],[88.37138039706542,21.785510743336722],[88.37138039706542,21.785510743336722],[88.37138039706542,21.785510743336722]]],[[[88.43754080570112,21.789517994232124],[88.43754080570112,21.789517994232124],[88.43754080570112,21.789517994232124],[88.43754080570112,21.789517994232124]]],[[[88.27922890924509,21.78552602426431],[88.27922890924509,21.78552602426431],[88.27922890924509,21.78552602426431],[88.27922890924509,21.78552602426431]]],[[[88.90318460563783,21.645264144038418],[88.90318460563783,21.645264144038418],[88.90318460563783,21.645264144038418],[88.90318460563783,21.645264144038418]]],[[[88.85882488332136,21.75229688281359],[88.85882488332136,21.75229688281359],[88.85882488332136,21.75229688281359],[88.85882488332136,21.75229688281359]]],[[[88.7891836197407,21.66680132240458],[88.82093933093564,21.868481538876836],[88.71375141249503,21.90155229597662],[88.7891836197407,21.66680132240458]]],[[[88.78689769929508,21.764085687530024],[88.78689769929508,21.764085687530024],[88.78689769929508,21.764085687530024],[88.78689769929508,21.764085687530024]]],[[[88.90084797259946,21.751622428184994],[88.90084797259946,21.751622428184994],[88.90084797259946,21.751622428184994],[88.90084797259946,21.751622428184994]]],[[[88.91449777273036,21.93242484601592],[88.91449777273036,21.93242484601592],[88.91449777273036,21.93242484601592],[88.91449777273036,21.93242484601592]]],[[[88.81293149786302,21.873211364822165],[88.81293149786302,21.873211364822165],[88.81293149786302,21.873211364822165],[88.81293149786302,21.873211364822165]]],[[[88.77910433181003,21.922874665616852],[88.77910433181003,21.922874665616852],[88.77910433181003,21.922874665616852],[88.77910433181003,21.922874665616852]]],[[[88.47204492418594,21.799262782332345],[88.47204492418594,21.799262782332345],[88.47204492418594,21.799262782332345],[88.47204492418594,21.799262782332345]]],[[[88.58041311931541,21.813856523221634],[88.58041311931541,21.813856523221634],[88.58041311931541,21.813856523221634],[88.58041311931541,21.813856523221634]]],[[[88.50286520440417,21.82836958277094],[88.50286520440417,21.82836958277094],[88.50286520440417,21.82836958277094],[88.50286520440417,21.82836958277094]]],[[[88.65235411404085,21.869385675126736],[88.65235411404085,21.869385675126736],[88.65235411404085,21.869385675126736],[88.65235411404085,21.869385675126736]]],[[[88.54100164906221,21.8280930603699],[88.54100164906221,21.8280930603699],[88.54100164906221,21.8280930603699],[88.54100164906221,21.8280930603699]]],[[[88.5724323938048,21.85493996037658],[88.5724323938048,21.85493996037658],[88.5724323938048,21.85493996037658],[88.5724323938048,21.85493996037658]]],[[[88.55960468421122,21.8854629557445],[88.55960468421122,21.8854629557445],[88.55960468421122,21.8854629557445],[88.55960468421122,21.8854629557445]]],[[[88.6564925645199,21.9179483267859],[88.6564925645199,21.9179483267859],[88.6564925645199,21.9179483267859],[88.6564925645199,21.9179483267859]]],[[[89.12311033585395,21.585861074169582],[89.12311033585395,21.585861074169582],[89.12311033585395,21.585861074169582],[89.12311033585395,21.585861074169582]]],[[[89.4892548484595,25.92883296611663],[89.4892548484595,25.92883296611663],[89.4892548484595,25.92883296611663],[89.4892548484595,25.92883296611663]]],[[[89.5988150783266,25.940352457337156],[89.5988150783266,25.940352457337156],[89.5988150783266,25.940352457337156],[89.5988150783266,25.940352457337156]]],[[[89.49464062588021,25.954669722671948],[89.49464062588021,25.954669722671948],[89.49464062588021,25.954669722671948],[89.49464062588021,25.954669722671948]]],[[[88.99407257707841,21.68434150919575],[88.99407257707841,21.68434150919575],[88.99407257707841,21.68434150919575],[88.99407257707841,21.68434150919575]]],[[[88.9986081053709,21.80999801082733],[88.9986081053709,21.80999801082733],[88.9986081053709,21.80999801082733],[88.9986081053709,21.80999801082733]]],[[[89.01641680343334,21.874074956164698],[89.01641680343334,21.874074956164698],[89.01641680343334,21.874074956164698],[89.01641680343334,21.874074956164698]]],[[[89.61737254822947,26.12456617269995],[89.61737254822947,26.12456617269995],[89.61737254822947,26.12456617269995],[89.61737254822947,26.12456617269995]]],[[[89.61132960107615,26.13014856268992],[89.61132960107615,26.13014856268992],[89.61132960107615,26.13014856268992],[89.61132960107615,26.13014856268992]]],[[[89.62205484686636,26.151376051101614],[89.62205484686636,26.151376051101614],[89.62205484686636,26.151376051101614],[89.62205484686636,26.151376051101614]]],[[[89.66505668837578,26.168631828501066],[89.66505668837578,26.168631828501066],[89.66505668837578,26.168631828501066],[89.66505668837578,26.168631828501066]]],[[[89.0754535979171,26.24754975289617],[89.0754535979171,26.24754975289617],[89.0754535979171,26.24754975289617],[89.0754535979171,26.24754975289617]]],[[[89.07353391073134,26.28137301359718],[89.07353391073134,26.28137301359718],[89.07353391073134,26.28137301359718],[89.07353391073134,26.28137301359718]]],[[[89.07735254929113,26.29458468325546],[89.07735254929113,26.29458468325546],[89.07735254929113,26.29458468325546],[89.07735254929113,26.29458468325546]]],[[[89.0687458660125,26.301988356480784],[89.0687458660125,26.301988356480784],[89.0687458660125,26.301988356480784],[89.0687458660125,26.301988356480784]]],[[[88.48838883563427,21.907929195257395],[88.48838883563427,21.907929195257395],[88.48838883563427,21.907929195257395],[88.48838883563427,21.907929195257395]]],[[[88.51528948958679,21.937269323222978],[88.51528948958679,21.937269323222978],[88.51528948958679,21.937269323222978],[88.51528948958679,21.937269323222978]]],[[[88.80204907294922,21.937415783088902],[88.80204907294922,21.937415783088902],[88.80204907294922,21.937415783088902],[88.80204907294922,21.937415783088902]]],[[[88.97478533021176,26.197558777847547],[88.97478533021176,26.197558777847547],[88.97478533021176,26.197558777847547],[88.97478533021176,26.197558777847547]]],[[[88.95060687699734,26.203349331170646],[88.95060687699734,26.203349331170646],[88.95060687699734,26.203349331170646],[88.95060687699734,26.203349331170646]]],[[[88.95766514679715,26.20484286035397],[88.95766514679715,26.20484286035397],[88.95766514679715,26.20484286035397],[88.95766514679715,26.20484286035397]]],[[[88.95989021446711,26.212697042342253],[88.95989021446711,26.212697042342253],[88.95989021446711,26.212697042342253],[88.95989021446711,26.212697042342253]]],[[[88.93066477445821,26.37527086048542],[88.93066477445821,26.37527086048542],[88.93066477445821,26.37527086048542],[88.93066477445821,26.37527086048542]]],[[[88.96490501013336,26.41325942133086],[88.96490501013336,26.41325942133086],[88.96490501013336,26.41325942133086],[88.96490501013336,26.41325942133086]]],[[[88.95067694109791,26.412499204190702],[88.95067694109791,26.412499204190702],[88.95067694109791,26.412499204190702],[88.95067694109791,26.412499204190702]]],[[[88.97312824932965,26.41853329919638],[88.97312824932965,26.41853329919638],[88.97312824932965,26.41853329919638],[88.97312824932965,26.41853329919638]]],[[[88.96523262841242,26.432132228472312],[88.96523262841242,26.432132228472312],[88.96523262841242,26.432132228472312],[88.96523262841242,26.432132228472312]]],[[[89.04894289903618,26.30763526748282],[89.04894289903618,26.30763526748282],[89.04894289903618,26.30763526748282],[89.04894289903618,26.30763526748282]]],[[[89.02045290795375,26.31409966670393],[89.02045290795375,26.31409966670393],[89.02045290795375,26.31409966670393],[89.02045290795375,26.31409966670393]]],[[[89.03142552192541,26.317539024587003],[89.03142552192541,26.317539024587003],[89.03142552192541,26.317539024587003],[89.03142552192541,26.317539024587003]]],[[[88.997281124813,26.32002649775499],[88.997281124813,26.32002649775499],[88.997281124813,26.32002649775499],[88.997281124813,26.32002649775499]]],[[[89.00567180548663,26.329809788186385],[89.00567180548663,26.329809788186385],[89.00567180548663,26.329809788186385],[89.00567180548663,26.329809788186385]]],[[[89.01762638226846,26.334244151142023],[89.01762638226846,26.334244151142023],[89.01762638226846,26.334244151142023],[89.01762638226846,26.334244151142023]]],[[[89.06834223139575,26.306067193516995],[89.06834223139575,26.306067193516995],[89.06834223139575,26.306067193516995],[89.06834223139575,26.306067193516995]]],[[[89.06470128498904,26.31285478971611],[89.06470128498904,26.31285478971611],[89.06470128498904,26.31285478971611],[89.06470128498904,26.31285478971611]]],[[[89.07839852964167,26.32426183635461],[89.07839852964167,26.32426183635461],[89.07839852964167,26.32426183635461],[89.07839852964167,26.32426183635461]]],[[[89.07598190162727,26.36771985604197],[89.07598190162727,26.36771985604197],[89.07598190162727,26.36771985604197],[89.07598190162727,26.36771985604197]]],[[[88.99829789913701,26.3440776882785],[88.99829789913701,26.3440776882785],[88.99829789913701,26.3440776882785],[88.99829789913701,26.3440776882785]]],[[[88.98257365635142,26.35522658200323],[88.98257365635142,26.35522658200323],[88.98257365635142,26.35522658200323],[88.98257365635142,26.35522658200323]]],[[[89.05164609860934,26.371210274288657],[89.05164609860934,26.371210274288657],[89.05164609860934,26.371210274288657],[89.05164609860934,26.371210274288657]]],[[[89.04790531074703,26.376279308345993],[89.04790531074703,26.376279308345993],[89.04790531074703,26.376279308345993],[89.04790531074703,26.376279308345993]]],[[[89.05492349053235,26.373190733576447],[89.05492349053235,26.373190733576447],[89.05492349053235,26.373190733576447],[89.05492349053235,26.373190733576447]]],[[[88.98298693348441,26.395407053721964],[88.98298693348441,26.395407053721964],[88.98298693348441,26.395407053721964],[88.98298693348441,26.395407053721964]]],[[[89.0124490050105,26.405856736157357],[89.0124490050105,26.405856736157357],[89.0124490050105,26.405856736157357],[89.0124490050105,26.405856736157357]]],[[[88.9868499236664,26.409257232454845],[88.9868499236664,26.409257232454845],[88.9868499236664,26.409257232454845],[88.9868499236664,26.409257232454845]]],[[[88.98442610373984,26.410073962441427],[88.98442610373984,26.410073962441427],[88.98442610373984,26.410073962441427],[88.98442610373984,26.410073962441427]]],[[[88.97727766913661,26.44119527145159],[88.97727766913661,26.44119527145159],[88.97727766913661,26.44119527145159],[88.97727766913661,26.44119527145159]]],[[[88.14473984903368,21.85318881543449],[88.14473984903368,21.85318881543449],[88.14473984903368,21.85318881543449],[88.14473984903368,21.85318881543449]]],[[[88.08849543616958,21.880399376922625],[88.08849543616958,21.880399376922625],[88.08849543616958,21.880399376922625],[88.08849543616958,21.880399376922625]]],[[[88.09848383166147,21.908242849558693],[88.09848383166147,21.908242849558693],[88.09848383166147,21.908242849558693],[88.09848383166147,21.908242849558693]]],[[[88.11820261930914,21.90745384268648],[88.11820261930914,21.90745384268648],[88.11820261930914,21.90745384268648],[88.11820261930914,21.90745384268648]]],[[[88.17476866318097,21.788873191330264],[88.17476866318097,21.788873191330264],[88.17476866318097,21.788873191330264],[88.17476866318097,21.788873191330264]]],[[[88.35480094734956,21.797404959849338],[88.35480094734956,21.797404959849338],[88.35480094734956,21.797404959849338],[88.35480094734956,21.797404959849338]]],[[[88.17898016286229,21.842595524429456],[88.17898016286229,21.842595524429456],[88.17898016286229,21.842595524429456],[88.17898016286229,21.842595524429456]]],[[[88.47709635764105,21.841115597879774],[88.47709635764105,21.841115597879774],[88.47709635764105,21.841115597879774],[88.47709635764105,21.841115597879774]]],[[[88.16620967415568,21.866758603432306],[88.16620967415568,21.866758603432306],[88.16620967415568,21.866758603432306],[88.16620967415568,21.866758603432306]]],[[[88.27529056029223,26.33129228771488],[88.27529056029223,26.33129228771488],[88.27529056029223,26.33129228771488],[88.27529056029223,26.33129228771488]]],[[[88.08827603433953,21.974722473797005],[88.08827603433953,21.974722473797005],[88.08827603433953,21.974722473797005],[88.08827603433953,21.974722473797005]]],[[[88.01482460061725,27.21170989137787],[87.99169625910534,27.108340618966288],[88.1870866920385,26.77140087722113],[88.10540160764585,26.551079975441777],[88.28330434829684,26.377969192334294],[88.21362560071432,26.274135425737455],[87.85543328941415,26.035109826235725],[87.83073127110269,25.870850971648483],[88.0496952568908,25.70224962411259],[88.0732085983672,25.483682677968787],[87.78704738820538,25.449283577170064],[87.85342071822467,25.290031019176187],[87.7113681685111,25.257683806627348],[87.95753385975459,24.971091736348075],[87.86097757995665,24.766443590913553],[87.90881903577042,24.585771627018524],[87.77168511886859,24.58374679436591],[87.76146693612367,24.308251712971845],[87.43945007057252,23.981815706946353],[87.24538545667556,24.045068590882742],[87.29060827492712,23.893410124439978],[87.14955982880049,23.796738997874563],[86.91566744199152,23.883221300838493],[86.799296843207,23.688978443540073],[86.49057772802688,23.637689800008037],[86.34886478640647,23.440404464774264],[85.87586916250642,23.48068766903316],[85.819663238859,23.268486225659128],[86.22301970662602,22.99484563309043],[86.49689269762465,22.99268457458674],[86.41938051410214,22.79099668579424],[86.76581202331212,22.575703297332883],[86.88673630084946,22.25739174605194],[86.72695651499838,22.216793096636046],[86.72179973521159,22.146751420454276],[87.02816239243333,22.03790301845277],[87.0986015953449,21.865816676923544],[87.1701418049097,21.979415026240474],[87.26373736329535,21.8192342439379],[87.44438053689146,21.768220846583294],[87.48621588276677,21.609766410246106],[87.80639282074961,21.708851789486644],[88.18666526359266,22.104608878832295],[88.14757100194102,21.96139243700739],[88.22009667325396,21.603989127430438],[88.25593730791344,21.80102308665764],[88.59874415268123,21.98226010217556],[89.0076499038271,21.902774702275213],[89.09466854747137,22.148799280981326],[88.85999373793139,22.943637087131833],[88.94210367065622,23.20565198896652],[88.69581635021821,23.302202942657445],[88.75861038970032,23.477106719469873],[88.56238119170152,23.636367627063482],[88.58745430136192,23.87131832656111],[88.73301230279125,23.911063892203316],[88.74128909505316,24.254030118288988],[88.12393321954323,24.516967246242263],[88.02441569371685,24.688135386490416],[88.22588711925229,24.959824148366835],[88.32785317765872,24.871300671120782],[88.44017681039271,25.011810156477846],[88.44187683254204,25.1987017109859],[88.92062081547105,25.16537096404756],[89.00004640336222,25.29477654039097],[88.8372652230777,25.367875554026003],[88.81125205521856,25.523372493839997],[88.54108198090648,25.511112293545235],[88.45460746928771,25.664020345023122],[88.09359286426556,25.87390865142822],[88.17714620819231,26.147889994288683],[88.51741361626323,26.35194438094841],[88.43016930414147,26.545811155030723],[88.69860335991247,26.331250711828883],[89.05101673981963,26.241494050968388],[88.91176661848382,26.366374221556004],[89.09206213687848,26.39384368077356],[89.1551947468996,26.138667563251182],[89.39348855520727,26.008003508196737],[89.64892222722075,26.061568882097426],[89.71960293141667,26.165857988761047],[89.86903508100215,26.453676068761393],[89.85183119077276,26.697153768820364],[89.36969045317569,26.857274054908846],[89.12888534969404,26.80652864694383],[88.87047913084578,26.9445738742779],[88.74553283077847,27.14202526597501],[88.59576409862568,27.18932506070314],[88.43064887155253,27.079449114794897],[88.15361405060399,27.10977387532254],[88.01482460061725,27.21170989137787]]]]}},{"type":"Feature","id":"IN-OD","properties":{"shapeName":"Odisha","shapeISO":"IN-OR","shapeID":"1811400B82358585030651","shapeGroup":"IND","shapeType":"ADM1"},"geometry":{"type":"Polygon","coordinates":[[[81.39607140430347,17.819951703982543],[81.6172208213963,17.823140620344567],[82.03590793151389,18.067705851581778],[82.35011153279477,18.07732898646756],[82.36250511086604,18.422271010876628],[82.48105439191252,18.549439932056053],[82.59043540428713,18.281085009186395],[83.07528774519692,18.40408646574016],[82.99895316587529,18.62147179850001],[83.13715228258316,18.786304298858674],[83.41282106422526,18.874488968695275],[83.30849763517217,18.996511195539085],[83.53529086356451,19.01165681208011],[83.63778641055897,19.152995656681366],[83.89116658413862,18.81541834118213],[84.31897995411211,18.787960366782166],[84.5142703425704,19.0493576440467],[84.76474238480944,19.07727724241187],[84.98354803803717,19.3178662081627],[85.3072929064621,19.561521571994135],[85.6790662249087,19.745131753254913],[86.37272760576606,19.957990975443384],[86.5125979374487,20.158816048564557],[86.78313428634314,20.33000180079714],[86.77525925211731,20.52144307407802],[87.05564963997816,20.715043005856153],[86.85185797026844,21.09665173369899],[86.94495671897944,21.352813717976833],[87.14782031132137,21.508681513619223],[87.48621588276677,21.609766410246106],[87.44438053689146,21.768220846583294],[87.26373736329535,21.8192342439379],[87.1701418049097,21.979415026240474],[87.0986015953449,21.865816676923544],[87.02816239243333,22.03790301845277],[86.72179973521159,22.146751420454276],[86.72695651499838,22.216793096636046],[86.06907799185637,22.555917180394584],[85.95708126863066,22.46481039428924],[86.03125535118492,22.189993176891246],[85.90082241265343,21.982692219201578],[85.37128867619869,22.161014684654212],[85.2142560049618,22.049394990055884],[85.02840858549756,22.1221975928511],[85.11695447022772,22.294448911762544],[85.05700669780757,22.486198630587857],[84.90942677552327,22.42268587566656],[84.52989994065429,22.42554273339195],[84.29146180541981,22.342853962984957],[84.00912746777568,22.526052383891994],[84.00592864160909,22.373632517123248],[83.6273875415761,22.203726541375374],[83.493323404257,21.81815724183876],[83.19821405129557,21.14534786279452],[82.64047106165772,21.154754071474265],[82.48203732130987,20.85005717608577],[82.33952918650837,20.846865367442785],[82.33331185479884,20.568736691130646],[82.4380102514313,20.434212532355748],[82.40096000110579,20.05455197598036],[82.7180892535703,19.988764851502246],[82.70390398386824,19.83203750345378],[82.41800536743362,19.904095124089128],[81.94637148080817,20.105152059670246],[81.85179792657271,19.92316736333813],[82.06020917993611,19.79639529567553],[82.02904306629979,19.507686229696624],[82.10023979693088,19.516612249820657],[82.24603383070111,18.91913875485334],[81.96082790248715,18.596648923910898],[81.53734294792925,18.269353450302724],[81.39607140430347,17.819951703982543]]]}},{"type":"Feature","id":"IN-TS","properties":{"shapeName":"Telangāna","shapeISO":"IN-TG","shapeID":"1811400B25711494603400","shapeGroup":"IND","shapeType":"ADM1"},"geometry":{"type":"Polygon","coordinates":[[[77.55143503514522,18.29191082540236],[77.64895083693918,17.99887494360134],[77.44316300376857,17.583965336844308],[77.68779155089848,17.475208956018125],[77.51303975890434,17.43087443006733],[77.37795722759881,17.13994988653064],[77.50223851204784,17.009378871200393],[77.41889546462741,16.668586128617854],[77.46225722873181,16.585492816098522],[77.2882455613952,16.408718778218542],[77.5880620963269,16.333392393167287],[77.50484452109379,16.275820141844523],[77.51346826787129,15.926810324278092],[78.17538044582793,15.858098701706663],[78.4079250506903,16.074834056267036],[78.73552554041696,16.008181935167837],[79.00953436297475,16.240246773700242],[79.2226788234005,16.241890341000218],[79.26165932240454,16.56695555607656],[79.79252612101166,16.725535164499338],[79.9630835172475,16.64357419213043],[80.07326567593866,16.81723272391444],[80.05545623856274,16.971461635521834],[80.282669732981,17.007714672855634],[80.32170760378901,16.879674137135762],[80.5702470832893,16.76805746919483],[80.60194711241137,16.918637321008365],[80.36341256189576,16.976109595257967],[80.58002435043493,17.153117438131826],[80.87611017839839,17.074927621673822],[80.91887846332382,17.219786557153427],[81.17397560038079,17.23038939985671],[81.3123786678958,17.408776550923868],[81.01482580393676,17.522174346808637],[80.8855466175387,17.735722858532565],[81.08558432199924,17.798071960732894],[81.0082439412748,17.7982752842528],[80.94925711827366,18.08624055010885],[80.63764109530408,18.522554481043922],[80.27289101775115,18.72299154160009],[80.11225500178868,18.682906599465117],[79.91403806652639,18.82383186836146],[79.97967709566615,19.388682610852964],[79.73525220918754,19.604979268902497],[79.47143471244263,19.50020733401787],[79.25110922653518,19.61588258822055],[79.19032447939178,19.458996807751564],[78.94045815048759,19.55187652924345],[78.84041047581142,19.756342132218094],[78.42297024347785,19.817626549040824],[78.27620594386082,19.692413735000816],[78.30924406570085,19.481083780576277],[78.17534369574963,19.237577799498688],[77.86348409548907,19.304190823942523],[77.77152465579842,18.979153957978948],[77.94892731331393,18.84328735922802],[77.59640042138915,18.548936219372774],[77.55143503514522,18.29191082540236]]]}},{"type":"Feature","id":"IN-AP","properties":{"shapeName":"Andhra Pradesh","shapeISO":"IN-AP","shapeID":"1811400B84418948762846","shapeGroup":"IND","shapeType":"ADM1"},"geometry":{"type":"MultiPolygon","coordinates":[[[[80.92809268890723,15.715255098144302],[80.92809268890723,15.715255098144302],[80.92809268890723,15.715255098144302],[80.92809268890723,15.715255098144302]]],[[[80.8118201062017,15.730490124925055],[80.8118201062017,15.730490124925055],[80.8118201062017,15.730490124925055],[80.8118201062017,15.730490124925055]]],[[[80.79396110068673,15.770116797698698],[80.79396110068673,15.770116797698698],[80.79396110068673,15.770116797698698],[80.79396110068673,15.770116797698698]]],[[[80.79034340178127,15.82852924078106],[80.79034340178127,15.82852924078106],[80.79034340178127,15.82852924078106],[80.79034340178127,15.82852924078106]]],[[[80.78820183970348,15.837083918707863],[80.78820183970348,15.837083918707863],[80.78820183970348,15.837083918707863],[80.78820183970348,15.837083918707863]]],[[[81.00598346650791,15.791062127708708],[81.00598346650791,15.791062127708708],[81.00598346650791,15.791062127708708],[81.00598346650791,15.791062127708708]]],[[[81.0180516702917,15.801232843343916],[81.0180516702917,15.801232843343916],[81.0180516702917,15.801232843343916],[81.0180516702917,15.801232843343916]]],[[[80.78609203307101,15.854621394062834],[80.78609203307101,15.854621394062834],[80.78609203307101,15.854621394062834],[80.78609203307101,15.854621394062834]]],[[[80.7783207542605,15.86356969598149],[80.7783207542605,15.86356969598149],[80.7783207542605,15.86356969598149],[80.7783207542605,15.86356969598149]]],[[[80.26826078906137,13.564496252786313],[80.14275389534099,14.054832090721304],[80.19599454581258,14.58654774306306],[80.04700170653702,15.080596743134075],[80.12306909365546,15.36827638161907],[80.34560957711855,15.75158671614836],[80.7744155522433,15.867685953961397],[80.83096260213672,15.706925928582207],[81.00851532681371,15.754527186678457],[81.21371834236128,16.207592186625856],[81.34155832526625,16.322434326015337],[81.7207766975313,16.3069322297365],[82.31183685897408,16.56157797050508],[82.36114512979785,16.85459293465703],[82.2482424421334,16.90476192286523],[82.422118153045,17.156063155987002],[82.72622916504079,17.355223329558854],[83.16187074814917,17.560089160961674],[83.56863683805244,18.00986112798744],[84.07169591693373,18.276560613612105],[84.35468481200965,18.55499387529996],[84.76474238480944,19.07727724241187],[84.5142703425704,19.0493576440467],[84.31897995411211,18.787960366782166],[83.89116658413862,18.81541834118213],[83.63778641055897,19.152995656681366],[83.53529086356451,19.01165681208011],[83.30849763517217,18.996511195539085],[83.41282106422526,18.874488968695275],[83.13715228258316,18.786304298858674],[82.99895316587529,18.62147179850001],[83.07528774519692,18.40408646574016],[82.59043540428713,18.281085009186395],[82.48105439191252,18.549439932056053],[82.36250511086604,18.422271010876628],[82.35011153279477,18.07732898646756],[82.03590793151389,18.067705851581778],[81.6172208213963,17.823140620344567],[81.39607140430347,17.819951703982543],[81.08558432199924,17.798071960732894],[80.8855466175387,17.735722858532565],[81.01482580393676,17.522174346808637],[81.3123786678958,17.408776550923868],[81.17397560038079,17.23038939985671],[80.91887846332382,17.219786557153427],[80.87611017839839,17.074927621673822],[80.58002435043493,17.153117438131826],[80.36341256189576,16.976109595257967],[80.60194711241137,16.918637321008365],[80.5702470832893,16.76805746919483],[80.32170760378901,16.879674137135762],[80.282669732981,17.007714672855634],[80.05545623856274,16.971461635521834],[80.07326567593866,16.81723272391444],[79.9630835172475,16.64357419213043],[79.79252612101166,16.725535164499338],[79.26165932240454,16.56695555607656],[79.2226788234005,16.241890341000218],[79.00953436297475,16.240246773700242],[78.73552554041696,16.008181935167837],[78.4079250506903,16.074834056267036],[78.17538044582793,15.858098701706663],[77.51346826787129,15.926810324278092],[77.07106524887567,15.908847777748655],[77.0304640507585,15.634515061458835],[77.06375418327337,15.328043670705217],[77.16769624514905,15.258521417478102],[77.11295122380037,15.034084721656061],[76.87718764625455,15.030236680813172],[76.7650152484919,14.602157763892087],[76.94006892832044,14.244644952998348],[77.11487023724966,14.22317782150263],[77.13571293948867,14.336907342118177],[77.50386878091363,14.263783632549707],[77.3323076278406,14.030727018525221],[77.14108137493281,14.003895103624533],[77.00547179396523,14.184006613967108],[76.89454694592644,14.16784994484616],[77.04166447658793,13.933474045173654],[76.97641451588258,13.81736042923014],[77.43252100395742,13.843257185007403],[77.45533255278778,13.682304121462154],[77.96742663616678,13.96019406610718],[77.95613488670723,13.831263665664611],[78.11476853903677,13.862926418098818],[78.08973272113874,13.659139764709256],[78.40665651632138,13.57689569426652],[78.3776182636581,13.363189449352452],[78.57974123008262,13.167406613708806],[78.46743610444008,12.975070380748646],[78.23092787652435,12.760710107975598],[78.37939149670646,12.625062175072404],[78.59249357821035,12.782719673383],[78.62087328132871,12.991281446343239],[78.89566416908804,13.095158163574173],[79.16309076696284,13.020305715221395],[79.53999030451028,13.272390145111775],[79.93126622384489,13.35153636597148],[79.99969217105073,13.542330973640036],[80.24177825326292,13.470665481610363],[80.26826078906137,13.564496252786313]],[[82.22814236456338,16.760727574880665],[82.22814236456338,16.760727574880665],[82.22814236456338,16.760727574880665],[82.22814236456338,16.760727574880665]]]]}},{"type":"Feature","id":"IN-JH","properties":{"shapeName":"Jhārkhand","shapeISO":"IN-JH","shapeID":"1811400B52412412689061","shapeGroup":"IND","shapeType":"ADM1"},"geometry":{"type":"Polygon","coordinates":[[[83.3298774625774,24.101694597944302],[83.51569460522329,24.027215443705277],[83.70761114156167,23.817465046377595],[83.77245393637294,23.610950244735537],[84.02847980387287,23.602377301506323],[83.96925751985934,23.36687292687869],[84.14946053423759,22.965434004204027],[84.39636994160314,22.927346099864188],[84.2380787441279,22.691900681854456],[84.00912746777568,22.526052383891994],[84.29146180541981,22.342853962984957],[84.52989994065429,22.42554273339195],[84.90942677552327,22.42268587566656],[85.05700669780757,22.486198630587857],[85.11695447022772,22.294448911762544],[85.02840858549756,22.1221975928511],[85.2142560049618,22.049394990055884],[85.37128867619869,22.161014684654212],[85.90082241265343,21.982692219201578],[86.03125535118492,22.189993176891246],[85.95708126863066,22.46481039428924],[86.06907799185637,22.555917180394584],[86.72695651499838,22.216793096636046],[86.88673630084946,22.25739174605194],[86.76581202331212,22.575703297332883],[86.41938051410214,22.79099668579424],[86.49689269762465,22.99268457458674],[86.22301970662602,22.99484563309043],[85.819663238859,23.268486225659128],[85.87586916250642,23.48068766903316],[86.34886478640647,23.440404464774264],[86.49057772802688,23.637689800008037],[86.799296843207,23.688978443540073],[86.91566744199152,23.883221300838493],[87.14955982880049,23.796738997874563],[87.29060827492712,23.893410124439978],[87.24538545667556,24.045068590882742],[87.43945007057252,23.981815706946353],[87.76146693612367,24.308251712971845],[87.77168511886859,24.58374679436591],[87.90881903577042,24.585771627018524],[87.86097757995665,24.766443590913553],[87.95753385975459,24.971091736348075],[87.7113681685111,25.257683806627348],[87.55185839377654,25.33265732619293],[87.47810605318018,25.19440699825097],[87.32752632558217,25.223641652742558],[87.14575168256322,25.010010635807305],[87.05107242805985,24.60855888838768],[86.52768916350473,24.544241072337556],[86.44528040620058,24.36785016689473],[86.15830508972769,24.586727579423624],[86.05529386304778,24.779738484569254],[85.73668833631336,24.820782013190378],[85.67754673358876,24.59100429108632],[85.28820643575641,24.523069398855704],[85.08900057574056,24.372390090297024],[84.91660020395265,24.37330801078998],[84.80218797470833,24.53063336658868],[84.50159423176589,24.28815132769749],[84.29132438743582,24.466231843719516],[84.1083415723435,24.477495142997405],[84.03385057134349,24.629979860922603],[83.71863425971696,24.503351043564614],[83.5032947551147,24.52543975680424],[83.3298774625774,24.101694597944302]]]}}]}